NORAD_CAT_ID,OBJECT_NAME,OBJECT_TYPE,EPOCH,MEAN_MOTION,ECCENTRICITY,INCLINATION,RA_OF_ASC_NODE,ARG_OF_PERICENTER,MEAN_ANOMALY,BSTAR,MEAN_MOTION_DOT,MEAN_MOTION_DDOT,TLE_LINE0,TLE_LINE1,TLE_LINE2,SEMIMAJOR_AXIS,PERIOD,APOGEE,PERIGEE,DECAYED
52539.0,STARLINK-3757,PAYLOAD,2024-05-11 14:17:08,15.08963928,0.0001215,53.216,243.824,82.2242,277.8889,0.0024948,0.00039776,0.0,0 STARLINK-3757,1 52539U 22051G   24132.59523155  .00039776  00000-0  24948-2 0  9992,2 52539  53.2160 243.8240 0001215  82.2242 277.8889 15.08963928110805,6917.502,95.43,540.207,538.526,0.0
52539.0,STARLINK-3757,PAYLOAD,2024-05-11 17:27:55,15.08883001,0.0001674,53.2161,243.23,81.5194,278.5988,0.00033724,5.089e-05,0.0,0 STARLINK-3757,1 52539U 22051G   24132.72772444  .00005089  00000-0  33724-3 0  9997,2 52539  53.2161 243.2300 0001674  81.5194 278.5988 15.08883001110827,6917.749,95.435,540.772,538.456,0.0
52539.0,STARLINK-3757,PAYLOAD,2024-05-12 06:11:07,15.08722616,0.0003145,53.2184,240.8524,72.4922,287.6414,-0.0026212,-0.00041635,0.0,0 STARLINK-3757,1 52539U 22051G   24133.25772149 -.00041635  00000-0 -26212-2 0  9990,2 52539  53.2184 240.8524 0003145  72.4922 287.6414 15.08722616110904,6918.239,95.445,542.28,537.928,0.0
52539.0,STARLINK-3757,PAYLOAD,2024-05-12 14:08:05,15.08660821,0.0001486,53.2178,239.3664,69.8616,290.2536,-0.0034503,-0.00054517,0.0,0 STARLINK-3757,1 52539U 22051G   24133.58895688 -.00054517  00000-0 -34503-2 0  9995,2 52539  53.2178 239.3664 0001486  69.8616 290.2536 15.08660821110950,6918.428,95.449,541.321,539.265,0.0
52539.0,STARLINK-3757,PAYLOAD,2024-05-12 23:40:27,15.08703374,0.0001552,53.2166,237.5795,57.9676,302.1467,-0.00011137,-2.053e-05,0.0,0 STARLINK-3757,1 52539U 22051G   24133.98642705 -.00002053  00000-0 -11137-3 0  9996,2 52539  53.2166 237.5795 0001552  57.9676 302.1467 15.08703374111015,6918.298,95.446,541.237,539.089,0.0
52539.0,STARLINK-3757,PAYLOAD,2024-05-13 12:23:33,15.08805384,0.0001752,53.2172,235.2026,64.6623,295.455,0.0033694,0.00053694,0.0,0 STARLINK-3757,1 52539U 22051G   24134.51635931  .00053694  00000-0  33694-2 0  9995,2 52539  53.2172 235.2026 0001752  64.6623 295.4550 15.08805384111092,6917.986,95.44,541.063,538.639,0.0
52539.0,STARLINK-3757,PAYLOAD,2024-05-13 13:58:56,15.08814086,0.0002197,53.2167,234.9068,63.898,296.2238,0.0033326,0.00053113,0.0,0 STARLINK-3757,1 52539U 22051G   24134.58260042  .00053113  00000-0  33326-2 0  9997,2 52539  53.2167 234.9068 0002197  63.8980 296.2238 15.08814086111034,6917.96,95.439,541.344,538.305,0.0
52539.0,STARLINK-3757,PAYLOAD,2024-05-14 12:14:16,15.0891642,0.000209,53.2163,230.7416,56.1168,304.0023,0.0013693,0.00021617,0.0,0 STARLINK-3757,1 52539U 22051G   24135.50991418  .00021617  00000-0  13693-2 0  9997,2 52539  53.2163 230.7416 0002090  56.1168 304.0023 15.08916420111244,6917.647,95.433,540.958,538.066,0.0
52539.0,STARLINK-3757,PAYLOAD,2024-05-15 12:04:59,15.08917091,0.0002869,53.2158,226.2757,41.9352,318.1859,0.00036816,5.588e-05,0.0,0 STARLINK-3757,1 52539U 22051G   24136.50346641  .00005588  00000-0  36816-3 0  9992,2 52539  53.2158 226.2757 0002869  41.9352 318.1859 15.08917091111391,6917.645,95.433,541.494,537.525,0.0
52539.0,STARLINK-3757,PAYLOAD,2024-05-15 13:40:22,15.08925431,0.0002496,53.2164,225.9824,45.8987,314.221,0.00055064,8.507e-05,0.0,0 STARLINK-3757,1 52539U 22051G   24136.56970136  .00008507  00000-0  55064-3 0  9990,2 52539  53.2164 225.9824 0002496  45.8987 314.2210 15.08925431111331,6917.619,95.432,541.211,537.758,0.0
52539.0,STARLINK-3757,PAYLOAD,2024-05-15 23:12:40,15.08895207,0.000205,53.216,224.1978,59.146,300.9734,-0.00021823,-3.765e-05,0.0,0 STARLINK-3757,1 52539U 22051G   24136.96713047 -.00003765  00000-0 -21823-3 0  9999,2 52539  53.2160 224.1978 0002050  59.1460 300.9734 15.08895207111462,6917.712,95.434,540.995,538.159,0.0
52539.0,STARLINK-3757,PAYLOAD,2024-05-16 11:55:44,15.08868732,0.000201,53.2179,221.8171,91.3324,268.7899,-0.00016665,-2.942e-05,0.0,0 STARLINK-3757,1 52539U 22051G   24137.49704522 -.00002942  00000-0 -16665-3 0  9990,2 52539  53.2179 221.8171 0002010  91.3324 268.7899 15.08868732111549,6917.793,95.436,541.048,538.267,0.0
52539.0,STARLINK-3757,PAYLOAD,2024-05-16 23:03:26,15.08860731,0.0001586,53.2173,219.7364,83.909,276.2083,9.3499e-05,1.201e-05,0.0,0 STARLINK-3757,1 52539U 22051G   24137.96072378  .00001201  00000-0  93499-4 0  9995,2 52539  53.2173 219.7364 0001586  83.9090 276.2083 15.08860731111615,6917.817,95.436,540.779,538.585,0.0
52539.0,STARLINK-3757,PAYLOAD,2024-05-17 11:46:31,15.08856135,0.0001762,53.2174,217.3544,87.6635,272.4559,-1.9624e-05,-6.01e-06,0.0,0 STARLINK-3757,1 52539U 22051G   24138.49064062 -.00000601  00000-0 -19624-4 0  9998,2 52539  53.2174 217.3544 0001762  87.6635 272.4559 15.08856135111622,6917.831,95.437,540.915,538.477,0.0
52539.0,STARLINK-3757,PAYLOAD,2024-05-18 05:15:46,15.08843255,0.0001674,53.2159,214.0851,81.1252,278.9929,0.00014734,2.058e-05,0.0,0 STARLINK-3757,1 52539U 22051G   24139.21928742  .00002058  00000-0  14734-3 0  9995,2 52539  53.2159 214.0851 0001674  81.1252 278.9929 15.08843255111807,6917.87,95.437,540.893,538.577,0.0
52539.0,STARLINK-3757,PAYLOAD,2024-05-18 11:37:18,15.08852249,0.000154,53.2162,212.8942,89.2744,270.8424,0.00028149,4.196e-05,0.0,0 STARLINK-3757,1 52539U 22051G   24139.48424483  .00004196  00000-0  28149-3 0  9997,2 52539  53.2162 212.8942 0001540  89.2744 270.8424 15.08852249111775,6917.843,95.437,540.773,538.643,0.0
52539.0,STARLINK-3757,PAYLOAD,2024-05-19 09:52:44,15.08821733,0.0001675,53.2173,208.7318,90.416,269.7025,-8.3714e-05,-1.619e-05,0.0,0 STARLINK-3757,1 52539U 22051G   24140.41162054 -.00001619  00000-0 -83714-4 0  9994,2 52539  53.2173 208.7318 0001675  90.4160 269.7025 15.08821733111917,6917.936,95.439,540.96,538.642,0.0
52539.0,STARLINK-3757,PAYLOAD,2024-05-20 04:57:21,15.08838133,0.0001396,53.2169,205.1696,96.2983,263.8168,0.00031333,4.702e-05,0.0,0 STARLINK-3757,1 52539U 22051G   24141.20650265  .00004702  00000-0  31333-3 0  9991,2 52539  53.2169 205.1696 0001396  96.2983 263.8168 15.08838133112106,6917.886,95.438,540.717,538.785,0.0
52539.0,STARLINK-3757,PAYLOAD,2024-05-20 09:43:31,15.08845492,0.0001956,53.2172,204.2734,45.0428,315.0723,0.00056787,8.763e-05,0.0,0 STARLINK-3757,1 52539U 22051G   24141.40522169  .00008763  00000-0  56787-3 0  9995,2 52539  53.2172 204.2734 0001956  45.0428 315.0723 15.08845492112069,6917.864,95.437,541.082,538.375,0.0
52539.0,STARLINK-3757,PAYLOAD,2024-05-21 09:34:18,15.08840465,0.0001814,53.218,199.8184,89.1552,270.9648,0.00016614,2.357e-05,0.0,0 STARLINK-3757,1 52539U 22051G   24142.39882230  .00002357  00000-0  16614-3 0  9990,2 52539  53.2180 199.8184 0001814  89.1552 270.9648 15.08840465112280,6917.879,95.438,540.999,538.489,0.0
52539.0,STARLINK-3757,PAYLOAD,2024-05-22 11:00:28,15.08844624,0.0001639,53.216,195.057,75.5697,284.5477,-5.8844e-05,-1.225e-05,0.0,0 STARLINK-3757,1 52539U 22051G   24143.45866032 -.00001225  00000-0 -58844-4 0  9997,2 52539  53.2160 195.0570 0001639  75.5697 284.5477 15.08844624112449,6917.866,95.437,540.865,538.597,0.0
52539.0,STARLINK-3757,PAYLOAD,2024-05-23 10:51:14,15.08861063,0.0001478,53.2161,190.5953,82.5384,277.5776,0.00039579,6.02e-05,0.0,0 STARLINK-3757,1 52539U 22051G   24144.45225164  .00006020  00000-0  39579-3 0  9992,2 52539  53.2161 190.5953 0001478  82.5384 277.5776 15.08861063112593,6917.816,95.436,540.703,538.659,0.0
52539.0,STARLINK-3757,PAYLOAD,2024-05-24 02:45:06,15.08848876,0.0001782,53.2156,187.628,69.1496,290.9687,0.00013297,1.829e-05,0.0,0 STARLINK-3757,1 52539U 22051G   24145.11465631  .00001829  00000-0  13297-3 0  9992,2 52539  53.2156 187.6280 0001782  69.1496 290.9687 15.08848876112698,6917.853,95.437,540.951,538.485,0.0
52539.0,STARLINK-3757,PAYLOAD,2024-05-24 09:06:38,15.08845807,0.0001412,53.2159,186.4304,88.5515,271.5639,7.2411e-05,8.65e-06,0.0,0 STARLINK-3757,1 52539U 22051G   24145.37961568  .00000865  00000-0  72411-4 0  9993,2 52539  53.2159 186.4304 0001412  88.5515 271.5639 15.08845807112662,6917.863,95.437,540.704,538.751,0.0
52539.0,STARLINK-3757,PAYLOAD,2024-05-24 20:14:22,15.08804395,4.93e-05,53.2153,184.3536,108.0963,252.0083,-0.00054517,-8.945e-05,0.0,0 STARLINK-3757,1 52539U 22051G   24145.84331173 -.00008945  00000-0 -54517-3 0  9993,2 52539  53.2153 184.3536 0000493 108.0963 252.0083 15.08804395112803,6917.989,95.44,540.195,539.513,0.0
52539.0,STARLINK-3757,PAYLOAD,2024-05-25 05:46:39,15.08840091,0.0001373,53.2154,182.567,90.2534,269.8615,-0.00015652,-2.778e-05,0.0,0 STARLINK-3757,1 52539U 22051G   24146.24073899 -.00002778  00000-0 -15652-3 0  9991,2 52539  53.2154 182.5670 0001373  90.2534 269.8615 15.08840091112863,6917.88,95.438,540.695,538.795,0.0
52539.0,STARLINK-3757,PAYLOAD,2024-05-25 08:57:26,15.08844536,0.0001411,53.217,181.9717,97.901,262.2142,-0.00011539,-2.124e-05,0.0,0 STARLINK-3757,1 52539U 22051G   24146.37322056 -.00002124  00000-0 -11539-3 0  9992,2 52539  53.2170 181.9717 0001411  97.9010 262.2142 15.08844536112817,6917.867,95.437,540.708,538.755,0.0
52539.0,STARLINK-3757,PAYLOAD,2024-05-26 07:12:50,15.08836493,0.0001402,53.2166,177.8094,89.6072,270.5081,6.6835e-05,7.76e-06,0.0,0 STARLINK-3757,1 52539U 22051G   24147.30058074  .00000776  00000-0  66835-4 0  9991,2 52539  53.2166 177.8094 0001402  89.6072 270.5081 15.08836493113021,6917.891,95.438,540.726,538.786,0.0
52539.0,STARLINK-3757,PAYLOAD,2024-05-27 08:39:00,15.08835174,0.0001288,53.2166,173.0516,91.8089,268.305,6.1713e-05,6.94e-06,0.0,0 STARLINK-3757,1 52539U 22051G   24148.36042393  .00000694  00000-0  61713-4 0  9994,2 52539  53.2166 173.0516 0001288  91.8089 268.3050 15.08835174113186,6917.895,95.438,540.651,538.869,0.0
52539.0,STARLINK-3757,PAYLOAD,2024-05-27 18:11:19,15.08835995,0.00013,53.2166,171.2673,90.3664,269.7477,5.5788e-05,6e-06,0.0,0 STARLINK-3757,1 52539U 22051G   24148.75786450  .00000600  00000-0  55788-4 0  9998,2 52539  53.2166 171.2673 0001300  90.3664 269.7477 15.08835995113176,6917.893,95.438,540.657,538.858,0.0
